IRIDIUM 119             
1 42959U 17061E   24315.58279302  .00001254  00000+0  44057-3 0  9999
2 42959  86.3929 269.0877 0002404  77.3267 282.8198 14.34212673371168
IRIDIUM 107             
1 42960U 17061F   24315.60183382  .00000481  00000+0  16454-3 0  9997
2 42960  86.3940 269.1001 0002512  80.4851 279.6629 14.34220792371172
IRIDIUM 132             
1 42961U 17061G   24315.60817889  .00000522  00000+0  17938-3 0  9998
2 42961  86.3941 269.0812 0002422  81.5012 278.6458 14.34219911371174
IRIDIUM 136             
1 42962U 17061H   24315.22128253  .00000277  00000+0  91764-4 0  9994
2 42962  86.3936 269.2470 0002452  85.6781 274.4695 14.34218292371136
IRIDIUM 139             
1 42963U 17061J   24315.57646391  .00000202  00000+0  65080-4 0  9991
2 42963  86.3946 269.1512 0002555  84.7035 275.4452 14.34211178371194
IRIDIUM 125             
1 42964U 17061K   24315.63354537  .00001066  00000+0  37356-3 0  9990
2 42964  86.3943 269.1772 0002825  90.4970 269.6549 14.34223612371213
IRIDIUM 135             
1 43070U 17083A   24315.60767532  .00001169  00000+0  41026-3 0  9996
2 43070  86.4019 205.8829 0001782  80.4788 279.6609 14.34219133360505
IRIDIUM 138             
1 43071U 17083B   24315.42374133  .00001593  00000+0  56157-3 0  9990
2 43071  86.4010 205.6589 0002395  95.9470 264.1999 14.34218846360464
